{
  "norad_id": 62593,
  "name": "STARLINK-11413 [DTC]",
  "history": [
    {
      "epoch": "2026-03-28T05:00:38.595456",
      "apogee_km": 357.5240997875526,
      "perigee_km": 355.07963316779933,
      "latitude_deg": 12.781180965325316,
      "longitude_deg": 99.34288383997045,
      "semi_major_axis_km": 6734.438866477676,
      "eccentricity": 0.00018149,
      "inclination_deg": 43.0011,
      "raan_deg": 14.8215,
      "arg_perigee_deg": 260.9182,
      "mean_anomaly_deg": 99.148,
      "mean_motion_rev_day": 15.70907596
    }
  ]
}